OBJECT_NAME,OBJECT_ID,EPOCH,MEAN_MOTION,ECCENTRICITY,INCLINATION,RA_OF_ASC_NODE,ARG_OF_PERICENTER,MEAN_ANOMALY,EPHEMERIS_TYPE,CLASSIFICATION_TYPE,NORAD_CAT_ID,ELEMENT_SET_NO,REV_AT_EPOCH,BSTAR,MEAN_MOTION_DOT,MEAN_MOTION_DDOT
TELSTAR 12V,2015-068A,2026-06-19T20:36:38.516832,1.00271164,.00022497,0.0150,33.7449,48.0576,120.4350,0,U,41036,999,3865,0,-.125E-5,0
YAOGAN-29,2015-069A,2026-06-19T22:39:21.754656,14.83084764,.00024782,98.0022,199.5814,50.0933,310.0497,0,U,41038,999,57103,-.42345415E-4,-.399E-5,0
ELEKTRO-L 2,2015-074A,2026-06-18T00:52:34.633344,1.00270556,.00009025,6.6975,70.5132,256.1704,298.2263,0,U,41105,999,3851,0,-.126E-5,0
COSMOS 2513,2015-075A,2026-06-20T04:39:01.763424,1.00273662,.0003151,0.0777,99.2256,333.8070,345.3758,0,U,41121,999,3857,0,-.143E-5,0
VELOX-CI,2015-077A,2026-06-19T08:36:03.863520,15.49904102,.00047812,14.9828,67.6401,263.6716,96.3066,0,U,41166,999,58306,.31314698E-3,.19279E-3,0
KENT RIDGE 1,2015-077B,2026-06-19T14:04:23.532672,15.23144229,.00082501,14.9791,248.1477,272.4275,87.5102,0,U,41167,999,58146,.10530968E-3,.3326E-4,0
DAMPE,2015-078A,2026-06-19T23:30:05.236992,15.30791810,.00137447,97.4556,176.4600,68.4588,291.8116,0,U,41173,999,58497,.39977641E-4,.1114E-4,0
GSAT0209 (GALILEO 12),2015-079A,2026-06-18T05:05:12.477408,1.70473656,.000525,55.8280,101.2339,345.1239,14.8344,0,U,41174,999,6479,0,-.11E-6,0
GSAT0208 (GALILEO 11),2015-079B,2026-06-19T14:31:49.223712,1.70473634,.00048541,55.8273,101.1925,343.5334,16.4302,0,U,41175,999,6523,0,-.12E-6,0
ORBCOMM FM110,2015-081D,2026-06-19T20:14:25.484064,14.58883660,.00024821,47.0032,348.8841,92.0645,268.0525,0,U,41182,999,55801,.13345137E-3,.46E-5,0
ORBCOMM FM118,2015-081E,2026-06-18T22:03:04.576608,14.58881067,.0002527,47.0047,353.5866,37.2659,322.8402,0,U,41183,999,55798,.44524E-3,.1935E-4,0
ORBCOMM FM112,2015-081F,2026-06-19T16:14:23.679744,14.58907266,.00038622,46.9988,258.4754,227.9874,132.0683,0,U,41184,999,55931,.11314782E-3,.364E-5,0
ORBCOMM FM113,2015-081G,2026-06-19T12:23:36.534912,14.58860259,.00023755,47.0005,259.6104,232.5233,127.5437,0,U,41185,999,55927,.80780567E-4,.211E-5,0
ORBCOMM FM108,2015-081J,2026-06-18T00:58:24.502368,14.58870752,.00029879,47.0030,178.1625,224.9174,135.1471,0,U,41187,999,56020,.90814462E-4,.258E-5,0
ORBCOMM FM117,2015-081K,2026-06-19T10:39:47.089728,14.58865978,.00035594,46.9990,170.1588,233.3238,126.7321,0,U,41188,999,56045,.61424387E-4,.119E-5,0
ORBCOMM FM116,2015-081L,2026-06-19T15:07:26.899680,14.58886246,.00005195,47.0018,259.0706,92.5393,267.5552,0,U,41189,999,55929,.11710242E-3,.383E-5,0
EXPRESS-AMU1,2015-082A,2026-06-19T13:02:51.257184,1.00274906,.00029671,0.0009,12.4016,85.2485,41.9597,0,U,41191,999,3829,0,.15E-5,0
GAOFEN-4,2015-083A,2026-06-19T21:56:02.409792,1.00273444,.0004244,0.3657,83.7526,119.1948,139.8810,0,U,41194,999,3855,0,-.34E-5,0
BELINTERSAT-1,2016-001A,2026-06-19T18:15:10.713888,1.00273792,.00022879,0.0269,254.9569,151.9856,186.3094,0,U,41238,999,3826,0,.101E-5,0
JASON-3,2016-002A,2026-06-19T22:53:52.930176,12.87628098,.00084839,66.0406,120.0178,272.6537,87.3510,0,U,41240,999,48760,.49792616E-4,-.5E-6,0
IRNSS-1E,2016-003A,2026-06-18T17:31:47.913024,1.00277463,.00189408,33.2372,59.7280,178.9729,42.9724,0,U,41241,999,3809,0,-.318E-5,0
EUTELSAT 9B,2016-005A,2026-06-19T18:03:09.147744,1.00272548,.00016818,0.0874,76.5134,334.4759,136.7426,0,U,41310,999,3814,0,.56E-6,0
NAVSTAR 76 (USA 266),2016-007A,2026-06-13T21:04:02.010720,2.00551861,.00961206,55.5220,89.5909,247.4205,111.5460,0,U,41328,999,7577,0,-.28E-6,0
COSMOS 2514 [GLONASS-M],2016-008A,2026-06-19T15:09:18.836928,2.13102571,.00113762,65.0201,312.9226,198.2261,161.7251,0,U,41330,999,8067,0,-.59E-6,0
SENTINEL-3A,2016-011A,2026-06-19T22:50:20.012928,14.26733280,.0001415,98.6249,238.2957,99.4207,260.7134,0,U,41335,999,53845,.29063891E-4,.27E-6,0
HORYU-4,2016-012D,2026-06-19T22:28:59.273760,15.98312502,.00064003,30.9843,58.8005,289.5711,70.4260,0,U,41340,999,57125,.95407066E-3,.470481E-2,.86037643E-4
SES-9,2016-013A,2026-06-18T21:59:29.946048,1.00270880,.0002105,0.0107,340.0830,104.5244,260.7094,0,U,41380,999,3745,0,-.351E-5,0
EUTELSAT 65 WEST A,2016-014A,2026-06-19T21:07:15.616704,1.00273581,.00024213,0.0508,337.2882,107.2673,75.1415,0,U,41382,999,3755,0,-.282E-5,0
IRNSS-1F,2016-015A,2026-06-19T19:52:24.841920,1.00268746,.00174314,5.3554,96.7216,184.9826,316.8793,0,U,41384,999,3769,0,.151E-5,0
COSMOS 2515,2016-020A,2026-06-19T23:20:34.357632,15.07962340,.00221037,97.9755,186.5531,295.1125,64.7808,0,U,41394,999,56083,.10067299E-3,.1485E-4,0
BEIDOU-2 IGSO-6,2016-021A,2026-06-16T02:58:21.700128,1.00259474,.00571844,60.2243,38.0497,231.4868,132.3999,0,U,41434,999,3747,0,-.15E-5,0
